{"type": "FeatureCollection", "features": [ {"type": "Feature", "properties": {"norad_id": 64202, "name": "GPS BIII-8  (PRN 21)", "group": "gnss", "lat": 34.08815020252397, "lon": 66.7147063693222, "alt_km": 20179.804066638026, "timestamp": "2025-12-15T04:01:20.697295+00:00", "meta": {"OBJECT_NAME": "GPS BIII-8  (PRN 21)", "OBJECT_ID": "2025-116A", "EPOCH": "2025-12-14T02:46:13.653120", "MEAN_MOTION": 2.00558299, "ECCENTRICITY": 0.00056153, "INCLINATION": 55.1067, "RA_OF_ASC_NODE": 38.5851, "ARG_OF_PERICENTER": 308.147, "MEAN_ANOMALY": 55.2369, "EPHEMERIS_TYPE": 0, "CLASSIFICATION_TYPE": "U", "NORAD_CAT_ID": 64202, "ELEMENT_SET_NO": 999, "REV_AT_EPOCH": 416, "BSTAR": 0, "MEAN_MOTION_DOT": -9.6e-07, "MEAN_MOTION_DDOT": 0}, "tle": {"line1": "1 64202U 25116A   25348.11543580 -.00000096  00000+0  00000+0 0  9992", "line2": "2 64202  55.1067  38.5851 0005615 308.1470  55.2369  2.00558299  4161"}}, "geometry": {"type": "Point", "coordinates": [66.7147063693222, 34.08815020252397]}}, {"type": "Feature", "properties": {"norad_id": 65590, "name": "COSMOS 2596 (708K)", "group": "gnss", "lat": 62.821163800631375, "lon": 74.55782347671754, "alt_km": 19155.41134807343, "timestamp": "2025-12-15T04:01:20.697309+00:00", "meta": {"OBJECT_NAME": "COSMOS 2596 (708K)", "OBJECT_ID": "2025-206B", "EPOCH": "2025-12-14T08:00:58.508064", "MEAN_MOTION": 2.13100528, "ECCENTRICITY": 0.00140478, "INCLINATION": 64.7433, "RA_OF_ASC_NODE": 321.4185, "ARG_OF_PERICENTER": 306.6085, "MEAN_ANOMALY": 234.1442, "EPHEMERIS_TYPE": 0, "CLASSIFICATION_TYPE": "U", "NORAD_CAT_ID": 65590, "ELEMENT_SET_NO": 999, "REV_AT_EPOCH": 197, "BSTAR": 0, "MEAN_MOTION_DOT": -6.6e-07, "MEAN_MOTION_DDOT": 0}, "tle": {"line1": "1 65590U 25206B   25348.33401051 -.00000066  00000+0  00000+0 0  9990", "line2": "2 65590  64.7433 321.4185 0014047 306.6085 234.1442  2.13100528  1971"}}, "geometry": {"type": "Point", "coordinates": [74.55782347671754, 62.821163800631375]}}]}